$$SOE
2461288.500000000, A.D. 2026-Sep-05 00:00:00.0000, 2.229246714447015E+08, 3.552404889630497E+08, 6.622186321898821E+07,
2461295.500000000, A.D. 2026-Sep-12 00:00:00.0000, 2.137785258173199E+08, 3.612647562402840E+08, 6.389256580135117E+07,
2461302.500000000, A.D. 2026-Sep-19 00:00:00.0000, 2.044967940392796E+08, 3.670599350754117E+08, 6.152274971854319E+07,
2461309.500000000, A.D. 2026-Sep-26 00:00:00.0000, 1.950854026441618E+08, 3.726224288183883E+08, 5.911393115151413E+07,
2461316.500000000, A.D. 2026-Oct-03 00:00:00.0000, 1.855503792973467E+08, 3.779488335650665E+08, 5.666765678315882E+07,
2461323.500000000, A.D. 2026-Oct-10 00:00:00.0000, 1.758978454635564E+08, 3.830359419570808E+08, 5.418550192341849E+07,
2461330.500000000, A.D. 2026-Oct-17 00:00:00.0000, 1.661340088920416E+08, 3.878807465374557E+08, 5.166906858505654E+07,
2461337.500000000, A.D. 2026-Oct-24 00:00:00.0000, 1.562651559655291E+08, 3.924804426327693E+08, 4.911998351193702E+07,
2461344.500000000, A.D. 2026-Oct-31 00:00:00.0000, 1.462976440340421E+08, 3.968324306903345E+08, 4.653989615134254E+07,
2461351.500000000, A.D. 2026-Nov-07 00:00:00.0000, 1.362378940956861E+08, 4.009343181414256E+08, 4.393047655140787E+07,
2461358.500000000, A.D. 2026-Nov-14 00:00:00.0000, 1.260923840496458E+08, 4.047839216763799E+08, 4.129341324372995E+07,
2461365.500000000, A.D. 2026-Nov-21 00:00:00.0000, 1.158676407348572E+08, 4.083792706099266E+08, 3.863041133819672E+07,
2461372.500000000, A.D. 2026-Nov-28 00:00:00.0000, 1.055702297770486E+08, 4.117186083224559E+08, 3.594319068055576E+07,
2461379.500000000, A.D. 2026-Dec-05 00:00:00.0000, 9.520674688165011E+07, 4.148003911218110E+08, 3.323348369335821E+07,
2461386.500000000, A.D. 2026-Dec-12 00:00:00.0000, 8.478381075858177E+07, 4.176232876417654E+08, 3.050303314588854E+07,
2461393.500000000, A.D. 2026-Dec-19 00:00:00.0000, 7.430805581165671E+07, 4.201861787881665E+08, 2.775359003294966E+07,
2461400.500000000, A.D. 2026-Dec-26 00:00:00.0000, 6.378612446922435E+07, 4.224881573723253E+08, 2.498691151111245E+07,
2461407.500000000, A.D. 2027-Jan-02 00:00:00.0000, 5.322465945143828E+07, 4.245285272507673E+08, 2.220475885775352E+07,
2461414.500000000, A.D. 2027-Jan-09 00:00:00.0000, 4.263029611031549E+07, 4.263068020022733E+08, 1.940889544947472E+07,
2461421.500000000, A.D. 2027-Jan-16 00:00:00.0000, 3.200965489592403E+07, 4.278227031621836E+08, 1.660108476257485E+07,
2461428.500000000, A.D. 2027-Jan-23 00:00:00.0000, 2.136933401124931E+07, 4.290761579860259E+08, 1.378308839291826E+07,
2461435.500000000, A.D. 2027-Jan-30 00:00:00.0000, 1.071590245858365E+07, 4.300672967070570E+08, 1.095666407854807E+07,
2461442.500000000, A.D. 2027-Feb-06 00:00:00.0000, 5.589391583830981E+04, 4.307964496412856E+08, 8.123563718024194E+06,
2461449.500000000, A.D. 2027-Feb-13 00:00:00.0000, -1.060419900450647E+07, 4.312641453750267E+08, 5.285531530087799E+06,
2461456.500000000, A.D. 2027-Feb-20 00:00:00.0000, -2.125793246392291E+07, 4.314711092582512E+08, 2.444302509987950E+06,
2461463.500000000, A.D. 2027-Feb-27 00:00:00.0000, -3.189891966728458E+07, 4.314182590011341E+08, -3.983992048503458E+05,
2461470.500000000, A.D. 2027-Mar-06 00:00:00.0000, -4.252083666796555E+07, 4.311066993132174E+08, -3.240862176243395E+06,
2461477.500000000, A.D. 2027-Mar-13 00:00:00.0000, -5.311742729899970E+07, 4.305377176542167E+08, -6.081389397098124E+06,
2461484.500000000, A.D. 2027-Mar-20 00:00:00.0000, -6.368250835036415E+07, 4.297127802779405E+08, -8.918299876132876E+06,
2461491.500000000, A.D. 2027-Mar-27 00:00:00.0000, -7.420997478346097E+07, 4.286335280363660E+08, -1.174993013672388E+07,
2461498.500000000, A.D. 2027-Apr-03 00:00:00.0000, -8.469380477431017E+07, 4.273017719130901E+08, -1.457463565052292E+07,
2461505.500000000, A.D. 2027-Apr-10 00:00:00.0000, -9.512806451961724E+07, 4.257194883264921E+08, -1.739079220802021E+07,
2461512.500000000, A.D. 2027-Apr-17 00:00:00.0000, -1.055069127800754E+08, 4.238888142055333E+08, -2.019679722796759E+07,
2461519.500000000, A.D. 2027-Apr-24 00:00:00.0000, -1.158246050792126E+08, 4.218120417930495E+08, -2.299107101699671E+07,
2461526.500000000, A.D. 2027-May-01 00:00:00.0000, -1.260754972568611E+08, 4.194916132210742E+08, -2.577205800387387E+07,
2461533.500000000, A.D. 2027-May-08 00:00:00.0000, -1.362540480700327E+08, 4.169301156234487E+08, -2.853822791498834E+07,
2461540.500000000, A.D. 2027-May-15 00:00:00.0000, -1.463548223390826E+08, 4.141302777570154E+08, -3.128807667601706E+07,
2461547.500000000, A.D. 2027-May-22 00:00:00.0000, -1.563724962026904E+08, 4.110949655559811E+08, -3.402012710838877E+07,
2461554.500000000, A.D. 2027-May-29 00:00:00.0000, -1.663018611273353E+08, 4.078271751630360E+08, -3.673292984786172E+07,
2461561.500000000, A.D. 2027-Jun-05 00:00:00.0000, -1.761378257923511E+08, 4.043300265839715E+08, -3.942506431083874E+07,
2461568.500000000, A.D. 2027-Jun-12 00:00:00.0000, -1.858754178625036E+08, 4.006067584145694E+08, -4.209513949030901E+07,
2461575.500000000, A.D. 2027-Jun-19 00:00:00.0000, -1.955097859828945E+08, 3.966607227186090E+08, -4.474179462842637E+07,
2461582.500000000, A.D. 2027-Jun-26 00:00:00.0000, -2.050362017220688E+08, 3.924953798082229E+08, -4.736369981364872E+07,
2461589.500000000, A.D. 2027-Jul-03 00:00:00.0000, -2.144500613374823E+08, 3.881142929473386E+08, -4.995955651510356E+07,
2461596.500000000, A.D. 2027-Jul-10 00:00:00.0000, -2.237468873332065E+08, 3.835211229990798E+08, -5.252809805832937E+07,
2461603.500000000, A.D. 2027-Jul-17 00:00:00.0000, -2.329223297803438E+08, 3.787196229898599E+08, -5.506809005055796E+07,
2461610.500000000, A.D. 2027-Jul-24 00:00:00.0000, -2.419721672503613E+08, 3.737136325380375E+08, -5.757833077670598E+07,
2461617.500000000, A.D. 2027-Jul-31 00:00:00.0000, -2.508923069563807E+08, 3.685070723919412E+08, -6.005765158607967E+07,
2461624.500000000, A.D. 2027-Aug-07 00:00:00.0000, -2.596787843102311E+08, 3.631039402368863E+08, -6.250491715865743E+07,
2461631.500000000, A.D. 2027-Aug-14 00:00:00.0000, -2.683277642044932E+08, 3.575083075255672E+08, -6.491902546228550E+07,
2461638.500000000, A.D. 2027-Aug-21 00:00:00.0000, -2.768355434085791E+08, 3.517243139740305E+08, -6.729890773381819E+07,
2461645.500000000, A.D. 2027-Aug-28 00:00:00.0000, -2.851985506566611E+08, 3.457561609299946E+08, -6.964352870152158E+07,
2461652.500000000, A.D. 2027-Sep-04 00:00:00.0000, -2.934133456212109E+08, 3.396081061222056E+08, -7.195188673880398E+07,
2461659.500000000, A.D. 2027-Sep-11 00:00:00.0000, -3.014766181782081E+08, 3.332844591384440E+08, -7.422301387926400E+07,
2461666.500000000, A.D. 2027-Sep-18 00:00:00.0000, -3.093851878389691E+08, 3.267895769889596E+08, -7.645597576158142E+07,
2461673.500000000, A.D. 2027-Sep-25 00:00:00.0000, -3.171360031274616E+08, 3.201278596826519E+08, -7.864987153421947E+07,
2461680.500000000, A.D. 2027-Oct-02 00:00:00.0000, -3.247261408359405E+08, 3.133037458474194E+08, -8.080383372700375E+07,
2461687.500000000, A.D. 2027-Oct-09 00:00:00.0000, -3.321528051444464E+08, 3.063217083932871E+08, -8.291702809433380E+07,
2461694.500000000, A.D. 2027-Oct-16 00:00:00.0000, -3.394133265490280E+08, 2.991862501659585E+08, -8.498865344256167E+07,
2461701.500000000, A.D. 2027-Oct-23 00:00:00.0000, -3.465051603467639E+08, 2.919018995870538E+08, -8.701794146801060E+07,
2461708.500000000, A.D. 2027-Oct-30 00:00:00.0000, -3.534258843108188E+08, 2.844732068926663E+08, -8.900415659221259E+07,
2461715.500000000, A.D. 2027-Nov-06 00:00:00.0000, -3.601731967274945E+08, 2.769047420993686E+08, -9.094659559776659E+07,
2461722.500000000, A.D. 2027-Nov-13 00:00:00.0000, -3.667449167894332E+08, 2.692010926232204E+08, -9.284458705517076E+07,
2461729.500000000, A.D. 2027-Nov-20 00:00:00.0000, -3.731389844493819E+08, 2.613668583671542E+08, -9.469749098729506E+07,
2461736.500000000, A.D. 2027-Nov-27 00:00:00.0000, -3.793534581227077E+08, 2.534066472394405E+08, -9.650469867840679E+07,
2461743.500000000, A.D. 2027-Dec-04 00:00:00.0000, -3.853865122705815E+08, 2.453250720157200E+08, -9.826563236945471E+07,
2461750.500000000, A.D. 2027-Dec-11 00:00:00.0000, -3.912364354223253E+08, 2.371267475807308E+08, -9.997974487034878E+07,
2461757.500000000, A.D. 2027-Dec-18 00:00:00.0000, -3.969016283683549E+08, 2.288162882101236E+08, -1.016465191439573E+08,
2461764.500000000, A.D. 2027-Dec-25 00:00:00.0000, -4.023806023777725E+08, 2.203983048888245E+08, -1.032654678774142E+08,
2461771.500000000, A.D. 2028-Jan-01 00:00:00.0000, -4.076719774051980E+08, 2.118774026787987E+08, -1.048361330447911E+08,
$$EOE